[{"OBJECT_NAME":"STARLINK-36195","OBJECT_ID":"2025-299Y","EPOCH":"2026-03-09T07:55:30.364320","MEAN_MOTION":15.40727297,"ECCENTRICITY":0.00011668,"INCLINATION":43.0011,"RA_OF_ASC_NODE":170.8185,"ARG_OF_PERICENTER":263.7182,"MEAN_ANOMALY":96.3541,"EPHEMERIS_TYPE":0,"CLASSIFICATION_TYPE":"U","NORAD_CAT_ID":67124,"ELEMENT_SET_NO":999,"REV_AT_EPOCH":1306,"BSTAR":0.0012615233,"MEAN_MOTION_DOT":0.00052806,"MEAN_MOTION_DDOT":0},{"OBJECT_NAME":"SL-12 DEB","OBJECT_ID":"1987-079U","EPOCH":"2026-03-09T13:20:56.747040","MEAN_MOTION":7.18934258,"ECCENTRICITY":0.4012871,"INCLINATION":65.0544,"RA_OF_ASC_NODE":216.2137,"ARG_OF_PERICENTER":59.017,"MEAN_ANOMALY":334.4115,"EPHEMERIS_TYPE":0,"CLASSIFICATION_TYPE":"U","NORAD_CAT_ID":25809,"ELEMENT_SET_NO":999,"REV_AT_EPOCH":12583,"BSTAR":0.0033706,"MEAN_MOTION_DOT":7.892e-5,"MEAN_MOTION_DDOT":0}]
